STARLINK-31471          
1 59568U 24076E   26068.16231798 -.00001762  00000+0 -54536-4 0  9995
2 59568  43.0065  11.8378 0001016 285.9523  74.1216 15.27566798106333
YAOGAN-43 01D           
1 60461U 24148D   26068.43560480  .00010676  00000+0  37766-3 0  9999
2 60461  35.0010  61.7102 0002556 326.2473  33.8080 15.28369377 87008
